CCSDS_OMM_VERS = 2.0
CREATION_DATE  = 
ORIGINATOR     = 

OBJECT_NAME    = IDEFIX & ARIANE 42P R/B
OBJECT_ID      = 2002-021B
CENTER_NAME    = EARTH
REF_FRAME      = TEME
TIME_SYSTEM    = UTC
MEAN_ELEMENT_THEORY = SGP/SGP4

EPOCH          = 2026-02-05T01:15:56.692800
MEAN_MOTION    = 14.31001815
ECCENTRICITY   = .00107257
INCLINATION    = 98.5838
RA_OF_ASC_NODE = 335.0561
ARG_OF_PERICENTER = 285.9844
MEAN_ANOMALY   = 74.0157

EPHEMERIS_TYPE = 0
CLASSIFICATION_TYPE = U
NORAD_CAT_ID   = 27422
ELEMENT_SET_NO = 999
REV_AT_EPOCH   = 23935
BSTAR          = .17034143E-3
MEAN_MOTION_DOT = .405E-5
MEAN_MOTION_DDOT = 0

CCSDS_OMM_VERS = 2.0
CREATION_DATE  = 
ORIGINATOR     = 

OBJECT_NAME    = AQUA
OBJECT_ID      = 2002-022A
CENTER_NAME    = EARTH
REF_FRAME      = TEME
TIME_SYSTEM    = UTC
MEAN_ELEMENT_THEORY = SGP/SGP4

EPOCH          = 2026-02-05T12:37:15.271680
MEAN_MOTION    = 14.61895901
ECCENTRICITY   = .0001616
INCLINATION    = 98.4119
RA_OF_ASC_NODE = 3.3200
ARG_OF_PERICENTER = 55.5708
MEAN_ANOMALY   = 55.4474

EPHEMERIS_TYPE = 0
CLASSIFICATION_TYPE = U
NORAD_CAT_ID   = 27424
ELEMENT_SET_NO = 999
REV_AT_EPOCH   = 26403
BSTAR          = .3207E-3
MEAN_MOTION_DOT = .1555E-4
MEAN_MOTION_DDOT = 0

CCSDS_OMM_VERS = 2.0
CREATION_DATE  = 
ORIGINATOR     = 

OBJECT_NAME    = CZ-4B R/B
OBJECT_ID      = 2002-024C
CENTER_NAME    = EARTH
REF_FRAME      = TEME
TIME_SYSTEM    = UTC
MEAN_ELEMENT_THEORY = SGP/SGP4

EPOCH          = 2026-02-05T02:30:41.251968
MEAN_MOTION    = 14.14541675
ECCENTRICITY   = .00510984
INCLINATION    = 98.8908
RA_OF_ASC_NODE = 89.6642
ARG_OF_PERICENTER = 115.2099
MEAN_ANOMALY   = 274.5506

EPHEMERIS_TYPE = 0
CLASSIFICATION_TYPE = U
NORAD_CAT_ID   = 27432
ELEMENT_SET_NO = 999
REV_AT_EPOCH   = 22463
BSTAR          = .56171931E-4
MEAN_MOTION_DOT = .65E-6
MEAN_MOTION_DDOT = 0

CCSDS_OMM_VERS = 2.0
CREATION_DATE  = 
ORIGINATOR     = 

OBJECT_NAME    = MIDORI II (ADEOS-II)
OBJECT_ID      = 2002-056A
CENTER_NAME    = EARTH
REF_FRAME      = TEME
TIME_SYSTEM    = UTC
MEAN_ELEMENT_THEORY = SGP/SGP4

EPOCH          = 2026-02-05T07:42:32.428224
MEAN_MOTION    = 14.29259927
ECCENTRICITY   = .0002163
INCLINATION    = 98.7714
RA_OF_ASC_NODE = 354.5876
ARG_OF_PERICENTER = 88.5139
MEAN_ANOMALY   = 271.6290

EPHEMERIS_TYPE = 0
CLASSIFICATION_TYPE = U
NORAD_CAT_ID   = 27597
ELEMENT_SET_NO = 999
REV_AT_EPOCH   = 20567
BSTAR          = .20771E-3
MEAN_MOTION_DOT = .483E-5
MEAN_MOTION_DDOT = 0

CCSDS_OMM_VERS = 2.0
CREATION_DATE  = 
ORIGINATOR     = 

OBJECT_NAME    = H-2A R/B
OBJECT_ID      = 2002-056E
CENTER_NAME    = EARTH
REF_FRAME      = TEME
TIME_SYSTEM    = UTC
MEAN_ELEMENT_THEORY = SGP/SGP4

EPOCH          = 2026-02-04T21:47:12.801984
MEAN_MOTION    = 14.33736496
ECCENTRICITY   = .00689975
INCLINATION    = 98.3143
RA_OF_ASC_NODE = 357.5336
ARG_OF_PERICENTER = 259.2173
MEAN_ANOMALY   = 164.9244

EPHEMERIS_TYPE = 0
CLASSIFICATION_TYPE = U
NORAD_CAT_ID   = 27601
ELEMENT_SET_NO = 999
REV_AT_EPOCH   = 20941
BSTAR          = .16602285E-3
MEAN_MOTION_DOT = .431E-5
MEAN_MOTION_DDOT = 0

CCSDS_OMM_VERS = 2.0
CREATION_DATE  = 
ORIGINATOR     = 

OBJECT_NAME    = CZ-4B R/B
OBJECT_ID      = 2003-049C
CENTER_NAME    = EARTH
REF_FRAME      = TEME
TIME_SYSTEM    = UTC
MEAN_ELEMENT_THEORY = SGP/SGP4

EPOCH          = 2026-02-05T09:44:56.558688
MEAN_MOTION    = 14.54983869
ECCENTRICITY   = .0047631
INCLINATION    = 98.6842
RA_OF_ASC_NODE = 30.0539
ARG_OF_PERICENTER = 331.5495
MEAN_ANOMALY   = 28.3102

EPHEMERIS_TYPE = 0
CLASSIFICATION_TYPE = U
NORAD_CAT_ID   = 28059
ELEMENT_SET_NO = 999
REV_AT_EPOCH   = 18190
BSTAR          = .17728E-3
MEAN_MOTION_DOT = .723E-5
MEAN_MOTION_DDOT = 0

CCSDS_OMM_VERS = 2.0
CREATION_DATE  = 
ORIGINATOR     = 

OBJECT_NAME    = CZ-2C R/B
OBJECT_ID      = 2004-012C
CENTER_NAME    = EARTH
REF_FRAME      = TEME
TIME_SYSTEM    = UTC
MEAN_ELEMENT_THEORY = SGP/SGP4

EPOCH          = 2026-02-05T03:23:19.167648
MEAN_MOTION    = 15.60807692
ECCENTRICITY   = .00163252
INCLINATION    = 97.7307
RA_OF_ASC_NODE = 98.4347
ARG_OF_PERICENTER = 72.6850
MEAN_ANOMALY   = 287.6190

EPHEMERIS_TYPE = 0
CLASSIFICATION_TYPE = U
NORAD_CAT_ID   = 28222
ELEMENT_SET_NO = 999
REV_AT_EPOCH   = 19919
BSTAR          = .70573898E-3
MEAN_MOTION_DOT = .59373E-3
MEAN_MOTION_DDOT = 0

CCSDS_OMM_VERS = 2.0
CREATION_DATE  = 
ORIGINATOR     = 

OBJECT_NAME    = SL-16 R/B
OBJECT_ID      = 2004-021B
CENTER_NAME    = EARTH
REF_FRAME      = TEME
TIME_SYSTEM    = UTC
MEAN_ELEMENT_THEORY = SGP/SGP4

EPOCH          = 2026-02-05T03:23:31.147872
MEAN_MOTION    = 14.14589294
ECCENTRICITY   = .00028328
INCLINATION    = 71.0005
RA_OF_ASC_NODE = 300.8008
ARG_OF_PERICENTER = 91.1547
MEAN_ANOMALY   = 268.9900

EPHEMERIS_TYPE = 0
CLASSIFICATION_TYPE = U
NORAD_CAT_ID   = 28353
ELEMENT_SET_NO = 999
REV_AT_EPOCH   = 11823
BSTAR          = .20383026E-4
MEAN_MOTION_DOT = -.8E-7
MEAN_MOTION_DDOT = 0

CCSDS_OMM_VERS = 2.0
CREATION_DATE  = 
ORIGINATOR     = 

OBJECT_NAME    = CZ-4B R/B
OBJECT_ID      = 2004-035C
CENTER_NAME    = EARTH
REF_FRAME      = TEME
TIME_SYSTEM    = UTC
MEAN_ELEMENT_THEORY = SGP/SGP4

EPOCH          = 2026-02-05T12:13:10.190208
MEAN_MOTION    = 15.28461981
ECCENTRICITY   = .0034262
INCLINATION    = 97.3544
RA_OF_ASC_NODE = 71.1441
ARG_OF_PERICENTER = 83.4087
MEAN_ANOMALY   = 277.1051

EPHEMERIS_TYPE = 0
CLASSIFICATION_TYPE = U
NORAD_CAT_ID   = 28415
ELEMENT_SET_NO = 999
REV_AT_EPOCH   = 17499
BSTAR          = .46158E-3
MEAN_MOTION_DOT = .12946E-3
MEAN_MOTION_DDOT = 0

CCSDS_OMM_VERS = 2.0
CREATION_DATE  = 
ORIGINATOR     = 

OBJECT_NAME    = CZ-2C R/B
OBJECT_ID      = 2004-046B
CENTER_NAME    = EARTH
REF_FRAME      = TEME
TIME_SYSTEM    = UTC
MEAN_ELEMENT_THEORY = SGP/SGP4

EPOCH          = 2026-02-05T05:32:21.901056
MEAN_MOTION    = 14.26980288
ECCENTRICITY   = .0138219
INCLINATION    = 98.1998
RA_OF_ASC_NODE = 313.2303
ARG_OF_PERICENTER = 250.7548
MEAN_ANOMALY   = 107.8637

EPHEMERIS_TYPE = 0
CLASSIFICATION_TYPE = U
NORAD_CAT_ID   = 28480
ELEMENT_SET_NO = 999
REV_AT_EPOCH   = 10387
BSTAR          = .9995E-4
MEAN_MOTION_DOT = .227E-5
MEAN_MOTION_DDOT = 0

CCSDS_OMM_VERS = 2.0
CREATION_DATE  = 
ORIGINATOR     = 

OBJECT_NAME    = ARIANE 5 R/B
OBJECT_ID      = 2004-049H
CENTER_NAME    = EARTH
REF_FRAME      = TEME
TIME_SYSTEM    = UTC
MEAN_ELEMENT_THEORY = SGP/SGP4

EPOCH          = 2026-02-05T10:18:58.641696
MEAN_MOTION    = 14.85197959
ECCENTRICITY   = .0085495
INCLINATION    = 98.2575
RA_OF_ASC_NODE = 203.6918
ARG_OF_PERICENTER = 95.5928
MEAN_ANOMALY   = 265.5044

EPHEMERIS_TYPE = 0
CLASSIFICATION_TYPE = U
NORAD_CAT_ID   = 28499
ELEMENT_SET_NO = 999
REV_AT_EPOCH   = 14100
BSTAR          = .16949E-3
MEAN_MOTION_DOT = .1487E-4
MEAN_MOTION_DDOT = 0

CCSDS_OMM_VERS = 2.0
CREATION_DATE  = 
ORIGINATOR     = 

OBJECT_NAME    = CZ-2D R/B
OBJECT_ID      = 2005-024B
CENTER_NAME    = EARTH
REF_FRAME      = TEME
TIME_SYSTEM    = UTC
MEAN_ELEMENT_THEORY = SGP/SGP4

EPOCH          = 2026-02-05T11:32:42.544608
MEAN_MOTION    = 15.57333450
ECCENTRICITY   = .0007212
INCLINATION    = 97.3615
RA_OF_ASC_NODE = 50.5171
ARG_OF_PERICENTER = 124.3423
MEAN_ANOMALY   = 235.8516

EPHEMERIS_TYPE = 0
CLASSIFICATION_TYPE = U
NORAD_CAT_ID   = 28738
ELEMENT_SET_NO = 999
REV_AT_EPOCH   = 13476
BSTAR          = .71917E-3
MEAN_MOTION_DOT = .52758E-3
MEAN_MOTION_DDOT = 0

