IDEFIX & ARIANE 42P R/B 
1 27422U 02021B   26036.05273950  .00000405  00000+0  17034-3 0  9996
2 27422  98.5838 335.0561 0010725 285.9844  74.0157 14.31001815239358
AQUA                    
1 27424U 02022A   26036.52587120  .00001555  00000+0  32070-3 0  9992
2 27424  98.4119   3.3200 0001616  55.5708  55.4474 14.61895901264033
CZ-4B R/B               
1 27432U 02024C   26036.10464412  .00000065  00000+0  56172-4 0  9990
2 27432  98.8908  89.6642 0051098 115.2099 274.5506 14.14541675224631
MIDORI II (ADEOS-II)    
1 27597U 02056A   26036.32120866  .00000483  00000+0  20771-3 0  9992
2 27597  98.7714 354.5876 0002163  88.5139 271.6290 14.29259927205679
H-2A R/B                
1 27601U 02056E   26035.90778706  .00000431  00000+0  16602-3 0  9994
2 27601  98.3143 357.5336 0068997 259.2173 164.9244 14.33736496209418
CZ-4B R/B               
1 28059U 03049C   26036.40621017  .00000723  00000+0  17728-3 0  9997
2 28059  98.6842  30.0539 0047631 331.5495  28.3102 14.54983869181906
CZ-2C R/B               
1 28222U 04012C   26036.14119407  .00059373  00000+0  70574-3 0  9999
2 28222  97.7307  98.4347 0016325  72.6850 287.6190 15.60807692199197
SL-16 R/B               
1 28353U 04021B   26036.14133273 -.00000008  00000+0  20383-4 0  9997
2 28353  71.0005 300.8008 0002832  91.1547 268.9900 14.14589294118233
CZ-4B R/B               
1 28415U 04035C   26036.50914572  .00012946  00000+0  46158-3 0  9990
2 28415  97.3544  71.1441 0034262  83.4087 277.1051 15.28461981174997
CZ-2C R/B               
1 28480U 04046B   26036.23080904  .00000227  00000+0  99950-4 0  9995
2 28480  98.1998 313.2303 0138219 250.7548 107.8637 14.26980288103877
ARIANE 5 R/B            
1 28499U 04049H   26036.42984539  .00001487  00000+0  16949-3 0  9991
2 28499  98.2575 203.6918 0085495  95.5928 265.5044 14.85197959141008
CZ-2D R/B               
1 28738U 05024B   26036.48104797  .00052758  00000+0  71917-3 0  9990
2 28738  97.3615  50.5171 0007212 124.3423 235.8516 15.57333450134768
